IRIDIUM 57              
1 25273U 98019B   24263.40123393  .00000917  00000+0  31276-3 0  9996
2 25273  86.3902 258.6354 0002273  90.6504 269.4953 14.35406052385936
IRIDIUM 63              
1 25286U 98021B   24263.52740159  .00001399  00000+0  47508-3 0  9991
2 25286  86.4051 195.5289 0002592  83.4436 276.7056 14.36009395384990
IRIDIUM 69              
1 25319U 98026A   24263.59565345  .00001957  00000+0  61218-3 0  9996
2 25319  86.4021 209.5858 0002718 137.5983 222.5426 14.40272688384105
IRIDIUM 71              
1 25320U 98026B   24263.57548436  .00001502  00000+0  46545-3 0  9990
2 25320  86.4029 204.3412 0000401 119.5381 240.5859 14.40575210384627
IRIDIUM 73              
1 25344U 98032C   24263.45393176  .00001644  00000+0  41169-3 0  9993
2 25344  86.4482 161.7223 0002329  98.6293 261.5176 14.50895286391297
IRIDIUM 82              
1 25467U 98051A   24263.36711585  .00020080  00000+0  91440-3 0  9990
2 25467  86.3710 240.9261 0115056 231.5915 127.4952 15.14730315382721
